MESON-1                 
1 59131U 24043AK  26068.90019075  .00008544  00000+0  29748-3 0  9998
2 59131  97.5469 205.2839 0009545 227.1432 132.9007 15.29893494111890
STARLINK-31866          
1 59668U 24084Q   26068.91942745  .00000940  00000+0  43681-4 0  9993
2 59668  42.9986  33.0943 0001034 225.7719 134.3047 15.27567508104493
